IRIDIUM 7 [-]           
1 24793U 97020B   24008.58467367  .00000421  00000+0  14104-3 0  9992
2 24793  86.3947  37.0605 0002421  88.7985 271.3489 14.35030864396498
IRIDIUM 5 [-]           
1 24795U 97020D   24008.36020214  .00003276  00000+0  32378-3 0  9990
2 24795  86.3942 324.2905 0124238 211.9167 147.4491 14.85888236407175
IRIDIUM 4 [-]           
1 24796U 97020E   24008.55479244  .00000451  00000+0  14857-3 0  9997
2 24796  86.3944  34.3001 0002343  93.3094 266.8371 14.35940436397017
IRIDIUM 914 [-]         
1 24836U 97030A   24008.59701139  .00000479  00000+0  14649-3 0  9997
2 24836  86.3919  44.4234 0003518 120.1773 239.9775 14.39772375531470
IRIDIUM 16 [-]          
1 24841U 97030F   24008.61563310  .00000485  00000+0  15489-3 0  9993
2 24841  86.4015  65.9893 0002722  44.3051 315.8364 14.37659181391463
IRIDIUM 911 [-]         
1 24842U 97030G   24008.59768524  .00000577  00000+0  15549-3 0  9994
2 24842  86.4441  65.2576 0016045  54.7296 305.5404 14.46225883399082
IRIDIUM 920 [-]         
1 24871U 97034C   24008.55963171  .00000499  00000+0  15049-3 0  9999
2 24871  86.3960  76.1144 0012219  25.4488 334.7311 14.40477609390887
